IRIDIUM 159             
1 43578U 18061K   23327.77317472  .00000116  00000+0  34476-4 0  9993
2 43578  86.3956  88.0699 0001936  93.8958 266.2459 14.34218705279161
IRIDIUM 180             
1 43922U 19002A   23327.56336690  .00000606  00000+0  20938-3 0  9993
2 43922  86.4001  25.0296 0002139  87.4356 272.7084 14.34218949254740
IRIDIUM 176             
1 43923U 19002B   23327.56413337  .00001475  00000+0  23001-3 0  9997
2 43923  86.6129  25.0621 0002326  92.8530 267.2953 14.72249233261449
IRIDIUM 168             
1 43924U 19002C   23327.55702224  .00000372  00000+0  12561-3 0  9997
2 43924  86.4002  25.0832 0002061  91.1889 268.9543 14.34220229254725
IRIDIUM 173             
1 43925U 19002D   23327.54435496  .00000420  00000+0  14280-3 0  9995
2 43925  86.3999  25.0160 0001992  96.4049 263.7373 14.34219976254701
IRIDIUM 169             
1 43926U 19002E   23327.75331710  .00000559  00000+0  17630-3 0  9998
2 43926  86.4246  56.5337 0003613 153.2906 206.8479 14.38601265255592
IRIDIUM 172             
1 43927U 19002F   23327.53800614  .00000417  00000+0  14195-3 0  9995
2 43927  86.3999  25.0237 0002088  91.9241 268.2194 14.34221019254712
IRIDIUM 175             
1 43928U 19002G   23327.55788710  .00001467  00000+0  22868-3 0  9992
2 43928  86.1531   9.8957 0002356  92.7495 267.3991 14.72237564261436
